[{"OBJECT_NAME":"KESTREL-0A","OBJECT_ID":"2025-138D","EPOCH":"2026-03-09T23:29:46.959072","MEAN_MOTION":15.21159497,"ECCENTRICITY":0.00158913,"INCLINATION":97.443,"RA_OF_ASC_NODE":74.1203,"ARG_OF_PERICENTER":109.5327,"MEAN_ANOMALY":250.7627,"EPHEMERIS_TYPE":0,"CLASSIFICATION_TYPE":"U","NORAD_CAT_ID":64624,"ELEMENT_SET_NO":999,"REV_AT_EPOCH":3885,"BSTAR":0.00055701832,"MEAN_MOTION_DOT":0.00012392,"MEAN_MOTION_DDOT":0},{"OBJECT_NAME":"FLOCK 4H-15","OBJECT_ID":"2025-276BE","EPOCH":"2026-03-09T17:00:11.631744","MEAN_MOTION":15.18339872,"ECCENTRICITY":0.00044925,"INCLINATION":97.4287,"RA_OF_ASC_NODE":143.9241,"ARG_OF_PERICENTER":23.8137,"MEAN_ANOMALY":336.3304,"EPHEMERIS_TYPE":0,"CLASSIFICATION_TYPE":"U","NORAD_CAT_ID":66718,"ELEMENT_SET_NO":999,"REV_AT_EPOCH":1531,"BSTAR":0.00037246212,"MEAN_MOTION_DOT":7.584e-5,"MEAN_MOTION_DDOT":0}]
